{"type": "FeatureCollection", "features": [ {"type": "Feature", "properties": {"norad_id": 34375, "name": "IRIDIUM 33 DEB", "group": "iridium-33-debris", "lat": 32.849838864947976, "lon": -178.01319884637374, "alt_km": 804.2312146054646, "timestamp": "2025-12-20T05:41:50.415930+00:00", "meta": {"OBJECT_NAME": "IRIDIUM 33 DEB", "OBJECT_ID": "1997-051FT", "EPOCH": "2025-12-19T23:28:28.676352", "MEAN_MOTION": 14.18004758, "ECCENTRICITY": 0.01036712, "INCLINATION": 86.4321, "RA_OF_ASC_NODE": 179.7825, "ARG_OF_PERICENTER": 104.0892, "MEAN_ANOMALY": 47.2924, "EPHEMERIS_TYPE": 0, "CLASSIFICATION_TYPE": "U", "NORAD_CAT_ID": 34375, "ELEMENT_SET_NO": 999, "REV_AT_EPOCH": 86814, "BSTAR": 0.00031026465, "MEAN_MOTION_DOT": 6.9e-06, "MEAN_MOTION_DDOT": 0}, "tle": {"line1": "1 34375U 97051FT  25353.97810968  .00000690  00000+0  31026-3 0  9999", "line2": "2 34375  86.4321 179.7825 0103671 104.0892  47.2924 14.18004758868142"}}, "geometry": {"type": "Point", "coordinates": [-178.01319884637374, 32.849838864947976]}}, {"type": "Feature", "properties": {"norad_id": 34376, "name": "IRIDIUM 33 DEB", "group": "iridium-33-debris", "lat": 10.569108505400813, "lon": -177.5231949683665, "alt_km": 668.6374162998409, "timestamp": "2025-12-20T05:41:50.415941+00:00", "meta": {"OBJECT_NAME": "IRIDIUM 33 DEB", "OBJECT_ID": "1997-051FU", "EPOCH": "2025-12-19T19:04:33.086496", "MEAN_MOTION": 14.62657013, "ECCENTRICITY": 0.00280058, "INCLINATION": 86.2977, "RA_OF_ASC_NODE": 3.368, "ARG_OF_PERICENTER": 143.3641, "MEAN_ANOMALY": 216.9493, "EPHEMERIS_TYPE": 0, "CLASSIFICATION_TYPE": "U", "NORAD_CAT_ID": 34376, "ELEMENT_SET_NO": 999, "REV_AT_EPOCH": 88110, "BSTAR": 0.00093405367, "MEAN_MOTION_DOT": 4.799e-05, "MEAN_MOTION_DDOT": 0}, "tle": {"line1": "1 34376U 97051FU  25353.79482739  .00004799  00000+0  93405-3 0  9994", "line2": "2 34376  86.2977   3.3680 0028005 143.3641 216.9493 14.62657013881108"}}, "geometry": {"type": "Point", "coordinates": [-177.5231949683665, 10.569108505400813]}}, {"type": "Feature", "properties": {"norad_id": 34486, "name": "IRIDIUM 33 DEB", "group": "iridium-33-debris", "lat": -24.747014174797986, "lon": -169.77026036144574, "alt_km": 588.6340553217324, "timestamp": "2025-12-20T05:41:50.415951+00:00", "meta": {"OBJECT_NAME": "IRIDIUM 33 DEB", "OBJECT_ID": "1997-051GB", "EPOCH": "2025-12-19T11:48:44.838432", "MEAN_MOTION": 14.96085447, "ECCENTRICITY": 0.0013897, "INCLINATION": 86.393, "RA_OF_ASC_NODE": 8.9076, "ARG_OF_PERICENTER": 92.9331, "MEAN_ANOMALY": 60.6575, "EPHEMERIS_TYPE": 0, "CLASSIFICATION_TYPE": "U", "NORAD_CAT_ID": 34486, "ELEMENT_SET_NO": 999, "REV_AT_EPOCH": 89087, "BSTAR": 0.0015014, "MEAN_MOTION_DOT": 0.00016952, "MEAN_MOTION_DDOT": 0}, "tle": {"line1": "1 34486U 97051GB  25353.49218563  .00016952  00000+0  15014-2 0  9998", "line2": "2 34486  86.3930   8.9076 0013897  92.9331  60.6575 14.96085447890870"}}, "geometry": {"type": "Point", "coordinates": [-169.77026036144574, -24.747014174797986]}}, {"type": "Feature", "properties": {"norad_id": 34487, "name": "IRIDIUM 33 DEB", "group": "iridium-33-debris", "lat": -58.37553263657606, "lon": -164.88942826363947, "alt_km": 771.3689199717192, "timestamp": "2025-12-20T05:41:50.415961+00:00", "meta": {"OBJECT_NAME": "IRIDIUM 33 DEB", "OBJECT_ID": "1997-051GC", "EPOCH": "2025-12-18T07:45:56.041056", "MEAN_MOTION": 14.43223269, "ECCENTRICITY": 0.00331222, "INCLINATION": 86.3431, "RA_OF_ASC_NODE": 9.9731, "ARG_OF_PERICENTER": 110.9986, "MEAN_ANOMALY": 270.0816, "EPHEMERIS_TYPE": 0, "CLASSIFICATION_TYPE": "U", "NORAD_CAT_ID": 34487, "ELEMENT_SET_NO": 999, "REV_AT_EPOCH": 88329, "BSTAR": 0.00015301486, "MEAN_MOTION_DOT": 5.38e-06, "MEAN_MOTION_DDOT": 0}, "tle": {"line1": "1 34487U 97051GC  25352.32356529  .00000538  00000+0  15301-3 0  9998", "line2": "2 34487  86.3431   9.9731 0033122 110.9986 270.0816 14.43223269883297"}}, "geometry": {"type": "Point", "coordinates": [-164.88942826363947, -58.37553263657606]}}, {"type": "Feature", "properties": {"norad_id": 34488, "name": "IRIDIUM 33 DEB", "group": "iridium-33-debris", "lat": 34.43511945043087, "lon": -55.38043348154477, "alt_km": 462.27507865434745, "timestamp": "2025-12-20T05:41:50.415972+00:00", "meta": {"OBJECT_NAME": "IRIDIUM 33 DEB", "OBJECT_ID": "1997-051GD", "EPOCH": "2025-12-18T20:36:21.699936", "MEAN_MOTION": 15.30898743, "ECCENTRICITY": 0.00115528, "INCLINATION": 86.3236, "RA_OF_ASC_NODE": 302.7776, "ARG_OF_PERICENTER": 41.1127, "MEAN_ANOMALY": 319.099, "EPHEMERIS_TYPE": 0, "CLASSIFICATION_TYPE": "U", "NORAD_CAT_ID": 34488, "ELEMENT_SET_NO": 999, "REV_AT_EPOCH": 89333, "BSTAR": 0.0035214405, "MEAN_MOTION_DOT": 0.0010661, "MEAN_MOTION_DDOT": 0}, "tle": {"line1": "1 34488U 97051GD  25352.85858449  .00106610  00000+0  35214-2 0  9997", "line2": "2 34488  86.3236 302.7776 0011552  41.1127 319.0990 15.30898743893334"}}, "geometry": {"type": "Point", "coordinates": [-55.38043348154477, 34.43511945043087]}}, {"type": "Feature", "properties": {"norad_id": 34492, "name": "IRIDIUM 33 DEB", "group": "iridium-33-debris", "lat": -38.69874232770144, "lon": 154.43135902196966, "alt_km": 677.0695091398966, "timestamp": "2025-12-20T05:41:50.415982+00:00", "meta": {"OBJECT_NAME": "IRIDIUM 33 DEB", "OBJECT_ID": "1997-051GH", "EPOCH": "2025-12-19T10:45:18.347328", "MEAN_MOTION": 14.25846982, "ECCENTRICITY": 0.0188646, "INCLINATION": 86.4707, "RA_OF_ASC_NODE": 331.9164, "ARG_OF_PERICENTER": 216.3823, "MEAN_ANOMALY": 273.3437, "EPHEMERIS_TYPE": 0, "CLASSIFICATION_TYPE": "U", "NORAD_CAT_ID": 34492, "ELEMENT_SET_NO": 999, "REV_AT_EPOCH": 85154, "BSTAR": 0.0022012, "MEAN_MOTION_DOT": 6.332e-05, "MEAN_MOTION_DDOT": 0}, "tle": {"line1": "1 34492U 97051GH  25353.44812902  .00006332  00000+0  22012-2 0  9994", "line2": "2 34492  86.4707 331.9164 0188646 216.3823 273.3437 14.25846982851542"}}, "geometry": {"type": "Point", "coordinates": [154.43135902196966, -38.69874232770144]}}, {"type": "Feature", "properties": {"norad_id": 34497, "name": "IRIDIUM 33 DEB", "group": "iridium-33-debris", "lat": 38.21496746801049, "lon": -133.73967644885948, "alt_km": 853.2785906670433, "timestamp": "2025-12-20T05:41:50.415993+00:00", "meta": {"OBJECT_NAME": "IRIDIUM 33 DEB", "OBJECT_ID": "1997-051GN", "EPOCH": "2025-12-19T10:35:53.025216", "MEAN_MOTION": 14.2747197, "ECCENTRICITY": 0.0078309, "INCLINATION": 86.2774, "RA_OF_ASC_NODE": 49.5385, "ARG_OF_PERICENTER": 317.619, "MEAN_ANOMALY": 57.0969, "EPHEMERIS_TYPE": 0, "CLASSIFICATION_TYPE": "U", "NORAD_CAT_ID": 34497, "ELEMENT_SET_NO": 999, "REV_AT_EPOCH": 86979, "BSTAR": 0.00044435, "MEAN_MOTION_DOT": 1.145e-05, "MEAN_MOTION_DDOT": 0}, "tle": {"line1": "1 34497U 97051GN  25353.44158594  .00001145  00000+0  44435-3 0  9990", "line2": "2 34497  86.2774  49.5385 0078309 317.6190  57.0969 14.27471970869798"}}, "geometry": {"type": "Point", "coordinates": [-133.73967644885948, 38.21496746801049]}}, {"type": "Feature", "properties": {"norad_id": 34508, "name": "IRIDIUM 33 DEB", "group": "iridium-33-debris", "lat": -56.64608895488595, "lon": -75.00201363573451, "alt_km": 768.6414314514186, "timestamp": "2025-12-20T05:41:50.416003+00:00", "meta": {"OBJECT_NAME": "IRIDIUM 33 DEB", "OBJECT_ID": "1997-051GZ", "EPOCH": "2025-12-19T06:54:06.441120", "MEAN_MOTION": 14.38473954, "ECCENTRICITY": 0.0066492, "INCLINATION": 86.3709, "RA_OF_ASC_NODE": 99.8676, "ARG_OF_PERICENTER": 151.959, "MEAN_ANOMALY": 208.5216, "EPHEMERIS_TYPE": 0, "CLASSIFICATION_TYPE": "U", "NORAD_CAT_ID": 34508, "ELEMENT_SET_NO": 999, "REV_AT_EPOCH": 87403, "BSTAR": 0.00082341, "MEAN_MOTION_DOT": 2.599e-05, "MEAN_MOTION_DDOT": 0}, "tle": {"line1": "1 34508U 97051GZ  25353.28757455  .00002599  00000+0  82341-3 0  9998", "line2": "2 34508  86.3709  99.8676 0066492 151.9590 208.5216 14.38473954874031"}}, "geometry": {"type": "Point", "coordinates": [-75.00201363573451, -56.64608895488595]}}, {"type": "Feature", "properties": {"norad_id": 34521, "name": "IRIDIUM 33 DEB", "group": "iridium-33-debris", "lat": 5.847489428803354, "lon": 27.618874712252104, "alt_km": 686.0898840761856, "timestamp": "2025-12-20T05:41:50.416013+00:00", "meta": {"OBJECT_NAME": "IRIDIUM 33 DEB", "OBJECT_ID": "1997-051HN", "EPOCH": "2025-12-19T03:24:49.282848", "MEAN_MOTION": 14.63417651, "ECCENTRICITY": 0.0002349, "INCLINATION": 86.3791, "RA_OF_ASC_NODE": 27.7294, "ARG_OF_PERICENTER": 185.2812, "MEAN_ANOMALY": 174.8375, "EPHEMERIS_TYPE": 0, "CLASSIFICATION_TYPE": "U", "NORAD_CAT_ID": 34521, "ELEMENT_SET_NO": 999, "REV_AT_EPOCH": 88566, "BSTAR": 0.00061239026, "MEAN_MOTION_DOT": 3.188e-05, "MEAN_MOTION_DDOT": 0}, "tle": {"line1": "1 34521U 97051HN  25353.14223707  .00003188  00000+0  61239-3 0  9994", "line2": "2 34521  86.3791  27.7294 0002349 185.2812 174.8375 14.63417651885663"}}, "geometry": {"type": "Point", "coordinates": [27.618874712252104, 5.847489428803354]}}, {"type": "Feature", "properties": {"norad_id": 34525, "name": "IRIDIUM 33 DEB", "group": "iridium-33-debris", "lat": -7.249482265816798, "lon": 43.181083737316406, "alt_km": 752.4019853912387, "timestamp": "2025-12-20T05:41:50.416023+00:00", "meta": {"OBJECT_NAME": "IRIDIUM 33 DEB", "OBJECT_ID": "1997-051HS", "EPOCH": "2025-12-19T22:13:43.269600", "MEAN_MOTION": 14.42921337, "ECCENTRICITY": 0.00064823, "INCLINATION": 86.3722, "RA_OF_ASC_NODE": 43.7763, "ARG_OF_PERICENTER": 78.7448, "MEAN_ANOMALY": 98.7135, "EPHEMERIS_TYPE": 0, "CLASSIFICATION_TYPE": "U", "NORAD_CAT_ID": 34525, "ELEMENT_SET_NO": 999, "REV_AT_EPOCH": 88191, "BSTAR": 0.00024386831, "MEAN_MOTION_DOT": 8.35e-06, "MEAN_MOTION_DDOT": 0}, "tle": {"line1": "1 34525U 97051HS  25353.92619525  .00000835  00000+0  24387-3 0  9990", "line2": "2 34525  86.3722  43.7763 0006482  78.7448  98.7135 14.42921337881913"}}, "geometry": {"type": "Point", "coordinates": [43.181083737316406, -7.249482265816798]}}]}